KUIPER-00035            
1 63748U 25088AA  25326.13235880  .00005483  00000+0  74931-3 0  9995
2 63748  51.8996 229.7303 0006715  73.8774 286.2927 14.79838775 31581
KUIPER-00037            
1 63749U 25088AB  25326.13178226  .00003542  00000+0  49066-3 0  9991
2 63749  51.8993 228.6594 0008539  29.4894 330.6549 14.80170877 32382
KUIPER-00038            
1 63750U 25088AC  25326.08265308  .00002807  00000+0  39727-3 0  9991
2 63750  51.9010 213.9143 0008036  77.7754 282.4108 14.79921209 31582
KUIPER-00039            
1 64500U 25134A   25326.25646336  .00004666  00000+0  63733-3 0  9999
2 64500  51.9016 348.1354 0011378 298.6676  61.3142 14.80129299 24166
KUIPER-00040            
1 64501U 25134B   25326.31281115 -.00003266  00000+0 -39795-3 0  9995
2 64501  51.8999 359.0584 0016670 273.0586  86.8469 14.79946271 24012
KUIPER-00041            
1 64502U 25134C   25326.31181535  .00006099  00000+0  82755-3 0  9990
2 64502  51.9005   0.4198 0013440 270.7465  89.1957 14.79931324 23999
KUIPER-00042            
1 64503U 25134D   25326.38206992 -.00011002  00000+0 -14142-2 0  9999
2 64503  51.9007 356.1072 0012007 279.8618  80.0988 14.79935043 24067
KUIPER-00043            
1 64504U 25134E   25326.25605264  .00006124  00000+0  83103-3 0  9992
2 64504  51.9031 349.1082 0003375 276.5389  83.5189 14.79959638 24152
